start=new Date('2022-04-09T00:00:00.000Z').valueOf();
sats=[{"PERIAPSIS":"545.879","OBJECT_ID":"2020-088AB","NORAD_CAT_ID":"47147","MEAN_MOTION_DOT":"0.00016590","INCLINATION":"53.0545","RA_OF_ASC_NODE":"245.4915","MEAN_MOTION":"15.06436791","TIME_SYSTEM":"UTC","SITE":"AFETR","BSTAR":"0.00112890000000","APOAPSIS":"548.322","MEAN_MOTION_DDOT":"0.0000000000000","OBJECT_TYPE":"PAYLOAD","SEMIMAJOR_AXIS":"6925.236","RCS_SIZE":"LARGE","MEAN_ANOMALY":"325.4842","TLE_LINE1":"1 47147U 20088AB  22098.72239991  .00016590  00000-0  11289-2 0  9998","TLE_LINE2":"2 47147  53.0545 245.4915 0001764  34.6261 325.4842 15.06436791 76167","REV_AT_EPOCH":"7616","CLASSIFICATION_TYPE":"U","DECAY_DATE":null,"GP_ID":"200782115","LAUNCH_DATE":"2020-11-25","REF_FRAME":"TEME","OBJECT_NAME":"STARLINK-1860","ELEMENT_SET_NO":"999","EPHEMERIS_TYPE":"0","ARG_OF_PERICENTER":"34.6261","CENTER_NAME":"EARTH","MEAN_ELEMENT_THEORY":"SGP4","PERIOD":"95.590","EPOCH":"2022-04-08T17:20:15.352224","ECCENTRICITY":"0.00017640","FILE":"3393990","COUNTRY_CODE":"US"},{"DECAY_DATE":null,"GP_ID":"200780863","LAUNCH_DATE":"2020-11-25","REV_AT_EPOCH":"7630","TLE_LINE2":"2 47148  53.0530 235.3060 0001416  53.8407 306.2713 15.06404154 76308","CLASSIFICATION_TYPE":"U","TLE_LINE1":"1 47148U 20088AC  22098.76387125  .00000443  00000-0  48628-4 0  9995","MEAN_ANOMALY":"306.2713","EPOCH":"2022-04-08T18:19:58.476000","ECCENTRICITY":"0.00014160","COUNTRY_CODE":"US","FILE":"3393990","CENTER_NAME":"EARTH","ARG_OF_PERICENTER":"53.8407","MEAN_ELEMENT_THEORY":"SGP4","PERIOD":"95.592","ELEMENT_SET_NO":"999","EPHEMERIS_TYPE":"0","REF_FRAME":"TEME","OBJECT_NAME":"STARLINK-1861","RA_OF_ASC_NODE":"235.3060","MEAN_MOTION":"15.06404154","TIME_SYSTEM":"UTC","NORAD_CAT_ID":"47148","MEAN_MOTION_DOT":"0.00000443","INCLINATION":"53.0530","OBJECT_ID":"2020-088AC","PERIAPSIS":"546.220","OBJECT_TYPE":"PAYLOAD","SEMIMAJOR_AXIS":"6925.336","RCS_SIZE":"LARGE","BSTAR":"0.00004862800000","MEAN_MOTION_DDOT":"0.0000000000000","APOAPSIS":"548.181","SITE":"AFETR"},{"ECCENTRICITY":"0.00015890","EPOCH":"2022-04-08T17:25:34.796352","FILE":"3393990","COUNTRY_CODE":"US","CENTER_NAME":"EARTH","ARG_OF_PERICENTER":"62.4849","PERIOD":"95.592","MEAN_ELEMENT_THEORY":"SGP4","ELEMENT_SET_NO":"999","EPHEMERIS_TYPE":"0","REF_FRAME":"TEME","OBJECT_NAME":"STARLINK-1862","GP_ID":"200780614","DECAY_DATE":null,"LAUNCH_DATE":"2020-11-25","REV_AT_EPOCH":"7689","TLE_LINE2":"2 47149  53.0545 245.4599 0001589  62.4849 297.6301 15.06406256 76896","CLASSIFICATION_TYPE":"U","TLE_LINE1":"1 47149U 20088AD  22098.72609718  .00000546  00000-0  55530-4 0  9991","MEAN_ANOMALY":"297.6301","SEMIMAJOR_AXIS":"6925.329","OBJECT_TYPE":"PAYLOAD","RCS_SIZE":"LARGE","BSTAR":"0.00005553000000","APOAPSIS":"548.295","MEAN_MOTION_DDOT":"0.0000000000000","SITE":"AFETR","MEAN_MOTION":"15.06406256","RA_OF_ASC_NODE":"245.4599","TIME_SYSTEM":"UTC","NORAD_CAT_ID":"47149","INCLINATION":"53.0545","MEAN_MOTION_DOT":"0.00000546","OBJECT_ID":"2020-088AD","PERIAPSIS":"546.094"},{"ARG_OF_PERICENTER":"59.2055","CENTER_NAME":"EARTH","MEAN_ELEMENT_THEORY":"SGP4","PERIOD":"95.592","EPOCH":"2022-04-08T20:27:21.767328","ECCENTRICITY":"0.00013980","FILE":"3393990","COUNTRY_CODE":"US","REF_FRAME":"TEME","OBJECT_NAME":"STARLINK-1863","ELEMENT_SET_NO":"999","EPHEMERIS_TYPE":"0","REV_AT_EPOCH":"7632","TLE_LINE2":"2 47150  53.0531 234.8914 0001398  59.2055 300.9072 15.06407600 76322","CLASSIFICATION_TYPE":"U","DECAY_DATE":null,"GP_ID":"200781865","LAUNCH_DATE":"2020-11-25","MEAN_ANOMALY":"300.9072","TLE_LINE1":"1 47150U 20088AE  22098.85233527  .00005207  00000-0  36815-3 0  9991","OBJECT_TYPE":"PAYLOAD","SEMIMAJOR_AXIS":"6925.325","RCS_SIZE":"LARGE","SITE":"AFETR","BSTAR":"0.00036815000000","APOAPSIS":"548.158","MEAN_MOTION_DDOT":"0.0000000000000","NORAD_CAT_ID":"47150","MEAN_MOTION_DOT":"0.00005207","INCLINATION":"53.0531","RA_OF_ASC_NODE":"234.8914","MEAN_MOTION":"15.06407600","TIME_SYSTEM":"UTC","PERIAPSIS":"546.222","OBJECT_ID":"2020-088AE"},{"TLE_LINE1":"1 47151U 20088AF  22098.71872379  .00002975  00000-0  21854-3 0  9997","MEAN_ANOMALY":"298.5217","LAUNCH_DATE":"2020-11-25","GP_ID":"200781616","DECAY_DATE":null,"CLASSIFICATION_TYPE":"U","TLE_LINE2":"2 47151  53.0550 245.5047 0001734  61.5947 298.5217 15.06403956 76154","REV_AT_EPOCH":"7615","EPHEMERIS_TYPE":"0","ELEMENT_SET_NO":"999","OBJECT_NAME":"STARLINK-1864","REF_FRAME":"TEME","COUNTRY_CODE":"US","FILE":"3393990","ECCENTRICITY":"0.00017340","EPOCH":"2022-04-08T17:14:57.735456","PERIOD":"95.592","MEAN_ELEMENT_THEORY":"SGP4","CENTER_NAME":"EARTH","ARG_OF_PERICENTER":"61.5947","OBJECT_ID":"2020-088AF","PERIAPSIS":"546.001","TIME_SYSTEM":"UTC","MEAN_MOTION":"15.06403956","RA_OF_ASC_NODE":"245.5047","INCLINATION":"53.0550","MEAN_MOTION_DOT":"0.00002975","NORAD_CAT_ID":"47151","APOAPSIS":"548.402","MEAN_MOTION_DDOT":"0.0000000000000","BSTAR":"0.00021854000000","SITE":"AFETR","RCS_SIZE":"LARGE","SEMIMAJOR_AXIS":"6925.336","OBJECT_TYPE":"PAYLOAD"},{"RCS_SIZE":"LARGE","OBJECT_TYPE":"PAYLOAD","SEMIMAJOR_AXIS":"6925.352","SITE":"AFETR","MEAN_MOTION_DDOT":"0.0000000000000","APOAPSIS":"548.351","BSTAR":"0.00021387000000","MEAN_MOTION_DOT":"0.00002905","INCLINATION":"53.0534","NORAD_CAT_ID":"47152","TIME_SYSTEM":"UTC","MEAN_MOTION":"15.06398778","RA_OF_ASC_NODE":"245.2746","PERIAPSIS":"546.084","OBJECT_ID":"2020-088AG","MEAN_ELEMENT_THEORY":"SGP4","PERIOD":"95.592","ARG_OF_PERICENTER":"59.9101","CENTER_NAME":"EARTH","FILE":"3393990","COUNTRY_CODE":"US","EPOCH":"2022-04-08T18:29:16.193184","ECCENTRICITY":"0.00016370","OBJECT_NAME":"STARLINK-1866","REF_FRAME":"TEME","EPHEMERIS_TYPE":"0","ELEMENT_SET_NO":"999","CLASSIFICATION_TYPE":"U","TLE_LINE2":"2 47152  53.0534 245.2746 0001637  59.9101 300.2050 15.06398778 76167","REV_AT_EPOCH":"7616","LAUNCH_DATE":"2020-11-25","GP_ID":"200780364","DECAY_DATE":null,"MEAN_ANOMALY":"300.2050","TLE_LINE1":"1 47152U 20088AG  22098.77032631  .00002905  00000-0  21387-3 0  9997"},{"RCS_SIZE":"LARGE","OBJECT_TYPE":"PAYLOAD","SEMIMAJOR_AXIS":"6925.340","SITE":"AFETR","APOAPSIS":"548.329","MEAN_MOTION_DDOT":"0.0000000000000","BSTAR":"0.00019329000000","MEAN_MOTION_DOT":"0.00002599","INCLINATION":"53.0541","NORAD_CAT_ID":"47153","TIME_SYSTEM":"UTC","MEAN_MOTION":"15.06402855","RA_OF_ASC_NODE":"250.0795","PERIAPSIS":"546.080","OBJECT_ID":"2020-088AH","MEAN_ELEMENT_THEORY":"SGP4","PERIOD":"95.592","CENTER_NAME":"EARTH","ARG_OF_PERICENTER":"61.3653","COUNTRY_CODE":"US","FILE":"3393769","EPOCH":"2022-04-08T19:28:17.269536","ECCENTRICITY":"0.00016240","OBJECT_NAME":"STARLINK-1867","REF_FRAME":"TEME","EPHEMERIS_TYPE":"0","ELEMENT_SET_NO":"999","CLASSIFICATION_TYPE":"U","REV_AT_EPOCH":"7635","TLE_LINE2":"2 47153  53.0541 250.0795 0001624  61.3653 298.7499 15.06402855 76350","LAUNCH_DATE":"2020-11-25","GP_ID":"200754667","DECAY_DATE":null,"MEAN_ANOMALY":"298.7499","TLE_LINE1":"1 47153U 20088AH  22098.81131099  .00002599  00000-0  19329-3 0  9993"},{"TIME_SYSTEM":"UTC","MEAN_MOTION":"15.06402303","RA_OF_ASC_NODE":"235.6848","MEAN_MOTION_DOT":"0.00002232","INCLINATION":"53.0529","NORAD_CAT_ID":"47154","OBJECT_ID":"2020-088AJ","PERIAPSIS":"546.067","RCS_SIZE":"LARGE","OBJECT_TYPE":"PAYLOAD","SEMIMAJOR_AXIS":"6925.341","APOAPSIS":"548.346","MEAN_MOTION_DDOT":"0.0000000000000","BSTAR":"0.00016865000000","SITE":"AFETR","LAUNCH_DATE":"2020-11-25","GP_ID":"200781366","DECAY_DATE":null,"CLASSIFICATION_TYPE":"U","TLE_LINE2":"2 47154  53.0529 235.6848 0001645  54.5454 305.5689 15.06402303 76290","REV_AT_EPOCH":"7629","TLE_LINE1":"1 47154U 20088AJ  22098.67541066  .00002232  00000-0  16865-3 0  9993","MEAN_ANOMALY":"305.5689","FILE":"3393990","COUNTRY_CODE":"US","EPOCH":"2022-04-08T16:12:35.481024","ECCENTRICITY":"0.00016450","MEAN_ELEMENT_THEORY":"SGP4","PERIOD":"95.592","ARG_OF_PERICENTER":"54.5454","CENTER_NAME":"EARTH","EPHEMERIS_TYPE":"0","ELEMENT_SET_NO":"999","OBJECT_NAME":"STARLINK-1868","REF_FRAME":"TEME"},{"TIME_SYSTEM":"UTC","RA_OF_ASC_NODE":"254.9331","MEAN_MOTION":"15.06398177","MEAN_MOTION_DOT":"0.00001183","INCLINATION":"53.0566","NORAD_CAT_ID":"47155","OBJECT_ID":"2020-088AK","PERIAPSIS":"546.056","RCS_SIZE":"LARGE","OBJECT_TYPE":"PAYLOAD","SEMIMAJOR_AXIS":"6925.354","APOAPSIS":"548.382","MEAN_MOTION_DDOT":"0.0000000000000","BSTAR":"0.00009829600000","SITE":"AFETR","LAUNCH_DATE":"2020-11-25","GP_ID":"200782116","DECAY_DATE":null,"CLASSIFICATION_TYPE":"U","TLE_LINE2":"2 47155  53.0566 254.9331 0001679  60.4156 299.7000 15.06398177 76031","REV_AT_EPOCH":"7603","TLE_LINE1":"1 47155U 20088AK  22098.84312383  .00001183  00000-0  98296-4 0  9994","MEAN_ANOMALY":"299.7000","FILE":"3393990","COUNTRY_CODE":"US","EPOCH":"2022-04-08T20:14:05.898912","ECCENTRICITY":"0.00016790","MEAN_ELEMENT_THEORY":"SGP4","PERIOD":"95.592","ARG_OF_PERICENTER":"60.4156","CENTER_NAME":"EARTH","EPHEMERIS_TYPE":"0","ELEMENT_SET_NO":"999","OBJECT_NAME":"STARLINK-1869","REF_FRAME":"TEME"},{"OBJECT_TYPE":"PAYLOAD","SEMIMAJOR_AXIS":"6671.808","RCS_SIZE":"LARGE","BSTAR":"-0.00023216000000","APOAPSIS":"294.433","MEAN_MOTION_DDOT":"0.0000135340000","SITE":"AFETR","RA_OF_ASC_NODE":"104.4301","MEAN_MOTION":"15.93079608","TIME_SYSTEM":"UTC","NORAD_CAT_ID":"47156","MEAN_MOTION_DOT":"-0.00087087","INCLINATION":"53.0418","OBJECT_ID":"2020-088AL","PERIAPSIS":"292.912","EPOCH":"2022-04-08T09:06:36.026496","ECCENTRICITY":"0.00011400","COUNTRY_CODE":"US","FILE":"3393517","CENTER_NAME":"EARTH","ARG_OF_PERICENTER":"72.4099","MEAN_ELEMENT_THEORY":"SGP4","PERIOD":"90.391","ELEMENT_SET_NO":"999","EPHEMERIS_TYPE":"0","REF_FRAME":"TEME","OBJECT_NAME":"STARLINK-1870","DECAY_DATE":null,"GP_ID":"200745627","LAUNCH_DATE":"2020-11-25","TLE_LINE2":"2 47156  53.0418 104.4301 0001140  72.4099 287.7052 15.93079608 78112","REV_AT_EPOCH":"7811","CLASSIFICATION_TYPE":"U","TLE_LINE1":"1 47156U 20088AL  22098.37958364 -.00087087  13534-4 -23216-3 0  9996","MEAN_ANOMALY":"287.7052"}];
